NORAD_CAT_ID,OBJECT_NAME,OBJECT_TYPE,EPOCH,MEAN_MOTION,ECCENTRICITY,INCLINATION,RA_OF_ASC_NODE,ARG_OF_PERICENTER,MEAN_ANOMALY,BSTAR,MEAN_MOTION_DOT,MEAN_MOTION_DDOT,TLE_LINE0,TLE_LINE1,TLE_LINE2,SEMIMAJOR_AXIS,PERIOD,APOGEE,PERIGEE,DECAYED
53242.0,STARLINK-4056,PAYLOAD,2023-10-30 10:48:20,15.08847649,0.0001798,53.2156,105.3641,86.0241,274.0957,0.00040026,6.089e-05,0.0,0 STARLINK-4056,1 53242U 22086A   23303.45023210  .00006089  00000-0  40026-3 0  9990,2 53242  53.2156 105.3641 0001798  86.0241 274.0957 15.08847649 70795,6917.857,95.437,540.966,538.478,0.0
53242.0,STARLINK-4056,PAYLOAD,2023-10-30 17:09:52,15.08850164,0.0001814,53.2155,104.1744,86.8413,273.2787,0.00039242,5.965e-05,0.0,0 STARLINK-4056,1 53242U 22086A   23303.71519042  .00005965  00000-0  39242-3 0  9992,2 53242  53.2155 104.1744 0001814  86.8413 273.2787 15.08850164 71332,6917.849,95.437,540.969,538.459,0.0
53242.0,STARLINK-4056,PAYLOAD,2023-10-31 04:17:34,15.0884213,0.000145,53.2156,102.0934,87.4818,272.634,0.00021281,3.101e-05,0.0,0 STARLINK-4056,1 53242U 22086A   23304.17887220  .00003101  00000-0  21281-3 0  9993,2 53242  53.2156 102.0934 0001450  87.4818 272.6340 15.08842130 70907,6917.874,95.437,540.742,538.736,0.0
53242.0,STARLINK-4056,PAYLOAD,2023-10-31 13:49:53,15.08843549,0.0001455,53.2161,100.3096,85.657,274.4588,0.00015269,2.143e-05,0.0,0 STARLINK-4056,1 53242U 22086A   23304.57631199  .00002143  00000-0  15269-3 0  9993,2 53242  53.2161 100.3096 0001455  85.6570 274.4588 15.08843549 71464,6917.87,95.437,540.741,538.728,0.0
53242.0,STARLINK-4056,PAYLOAD,2023-10-31 17:00:39,15.08847758,0.0001385,53.2153,99.7129,94.8352,265.2798,0.00017421,2.486e-05,0.0,0 STARLINK-4056,1 53242U 22086A   23304.70878948  .00002486  00000-0  17421-3 0  9995,2 53242  53.2153  99.7129 0001385  94.8352 265.2798 15.08847758 71484,6917.857,95.437,540.68,538.764,0.0
53242.0,STARLINK-4056,PAYLOAD,2023-11-01 13:40:40,15.08840353,0.0001428,53.2154,95.8471,96.7538,263.3616,0.00016994,2.418e-05,0.0,0 STARLINK-4056,1 53242U 22086A   23305.56991313  .00002418  00000-0  16994-3 0  9991,2 53242  53.2154  95.8471 0001428  96.7538 263.3616 15.08840353 71614,6917.879,95.438,540.732,538.756,0.0
53242.0,STARLINK-4056,PAYLOAD,2023-11-01 20:02:12,15.08845723,0.0001384,53.2157,94.6579,96.4709,263.6441,0.00017308,2.468e-05,0.0,0 STARLINK-4056,1 53242U 22086A   23305.83487000  .00002468  00000-0  17308-3 0  9999,2 53242  53.2157  94.6579 0001384  96.4709 263.6441 15.08845723 71155,6917.863,95.437,540.685,538.77,0.0
53242.0,STARLINK-4056,PAYLOAD,2023-11-02 10:20:41,15.08838447,0.0001489,53.2162,91.9794,104.5046,255.6111,3.5809e-05,2.82e-06,0.0,0 STARLINK-4056,1 53242U 22086A   23306.43103407  .00000282  00000-0  35809-4 0  9991,2 53242  53.2162  91.9794 0001489 104.5046 255.6111 15.08838447 71241,6917.885,95.438,540.78,538.72,0.0
53242.0,STARLINK-4056,PAYLOAD,2023-11-02 13:31:27,15.08841286,0.000153,53.2166,91.3846,99.5731,260.5434,5.3843e-05,5.69e-06,0.0,0 STARLINK-4056,1 53242U 22086A   23306.56351287  .00000569  00000-0  53843-4 0  9992,2 53242  53.2166  91.3846 0001530  99.5731 260.5434 15.08841286 71763,6917.876,95.437,540.8,538.683,0.0
53242.0,STARLINK-4056,PAYLOAD,2023-11-02 16:42:13,15.08845788,0.0001313,53.2165,90.792,85.3806,274.7336,0.00011274,1.507e-05,0.0,0 STARLINK-4056,1 53242U 22086A   23306.69599100  .00001507  00000-0  11274-3 0  9998,2 53242  53.2165  90.7920 0001313  85.3806 274.7336 15.08845788 71784,6917.863,95.437,540.636,538.819,0.0
53242.0,STARLINK-4056,PAYLOAD,2023-11-03 13:22:15,15.08816094,0.0001592,53.2172,86.9293,81.6134,278.5038,0.00067484,0.00010461,0.0,0 STARLINK-4056,1 53242U 22086A   23307.55712678  .00010461  00000-0  67484-3 0  9994,2 53242  53.2172  86.9293 0001592  81.6134 278.5038 15.08816094 71918,6917.953,95.439,540.92,538.717,0.0
53242.0,STARLINK-4056,PAYLOAD,2023-11-03 16:33:00,15.08840249,0.0001508,53.2174,86.3349,80.1813,279.935,7.7e-05,9.38e-06,0.0,0 STARLINK-4056,1 53242U 22086A   23307.68959432  .00000938  00000-0  77000-4 0  9993,2 53242  53.2174  86.3349 0001508  80.1813 279.9350 15.08840249 71439,6917.88,95.438,540.788,538.701,0.0
53242.0,STARLINK-4056,PAYLOAD,2023-11-04 13:13:02,15.08833929,0.0001827,53.2188,82.4707,102.453,257.6667,-8.1211e-06,-4.17e-06,0.0,0 STARLINK-4056,1 53242U 22086A   23308.55072044 -.00000417  00000-0 -81211-5 0  9999,2 53242  53.2188  82.4707 0001827 102.4530 257.6667 15.08833929 72068,6917.899,95.438,541.028,538.5,0.0
53242.0,STARLINK-4056,PAYLOAD,2023-11-04 16:23:48,15.08835595,0.0001797,53.2192,81.875,95.2856,264.8341,1.3591e-05,-7.2e-07,0.0,0 STARLINK-4056,1 53242U 22086A   23308.68320019 -.00000072  00000-0  13591-4 0  9992,2 53242  53.2192  81.8750 0001797  95.2856 264.8341 15.08835595 71586,6917.894,95.438,541.002,538.516,0.0
53242.0,STARLINK-4056,PAYLOAD,2023-11-05 14:39:11,15.08856071,0.0001325,53.2156,77.7081,112.3223,247.791,0.00025474,3.77e-05,0.0,0 STARLINK-4056,1 53242U 22086A   23309.61054745  .00003770  00000-0  25474-3 0  9995,2 53242  53.2156  77.7081 0001325 112.3223 247.7910 15.08856071 72229,6917.831,95.437,540.613,538.78,0.0
53242.0,STARLINK-4056,PAYLOAD,2023-11-05 16:14:34,15.08859771,0.0001381,53.2169,77.4117,82.2753,277.8396,0.00032669,4.918e-05,0.0,0 STARLINK-4056,1 53242U 22086A   23309.67678730  .00004918  00000-0  32669-3 0  9996,2 53242  53.2169  77.4117 0001381  82.2753 277.8396 15.08859771 71732,6917.82,95.436,540.64,538.73,0.0
53242.0,STARLINK-4056,PAYLOAD,2023-11-06 08:08:25,15.08854867,0.0001612,53.2185,74.4426,91.849,268.2687,0.00029452,4.404e-05,0.0,0 STARLINK-4056,1 53242U 22086A   23310.33918632  .00004404  00000-0  29452-3 0  9995,2 53242  53.2185  74.4426 0001612  91.8490 268.2687 15.08854867 71830,6917.835,95.437,540.815,538.585,0.0
53242.0,STARLINK-4056,PAYLOAD,2023-11-06 14:30:01,15.08794935,0.0001449,53.2158,73.2503,76.4829,283.6324,-0.00062256,-0.0001017,0.0,0 STARLINK-4056,1 53242U 22086A   23310.60417872 -.00010170  00000-0 -62256-3 0  9993,2 53242  53.2158  73.2503 0001449  76.4829 283.6324 15.08794935 72374,6918.018,95.44,540.886,538.881,0.0
53242.0,STARLINK-4056,PAYLOAD,2023-11-06 16:05:24,15.08795542,0.0001333,53.2167,72.9512,79.4396,280.6747,-0.00059059,-9.663e-05,0.0,0 STARLINK-4056,1 53242U 22086A   23310.67041964 -.00009663  00000-0 -59059-3 0  9997,2 53242  53.2167  72.9512 0001333  79.4396 280.6747 15.08795542 71880,6918.016,95.44,540.803,538.959,0.0
53242.0,STARLINK-4056,PAYLOAD,2023-11-07 01:37:43,15.08801609,0.0001231,53.2168,71.1693,80.5481,279.565,-0.00042161,-6.984e-05,0.0,0 STARLINK-4056,1 53242U 22086A   23311.06786511 -.00006984  00000-0 -42161-3 0  9994,2 53242  53.2168  71.1693 0001231  80.5481 279.5650 15.08801609 71946,6917.998,95.44,540.714,539.011,0.0
53242.0,STARLINK-4056,PAYLOAD,2023-11-07 14:20:48,15.0881163,0.0001379,53.2172,68.79,86.6312,273.4838,9.7498e-05,1.263e-05,0.0,0 STARLINK-4056,1 53242U 22086A   23311.59778812  .00001263  00000-0  97498-4 0  9994,2 53242  53.2172  68.7900 0001379  86.6312 273.4838 15.08811630 72528,6917.967,95.439,540.786,538.878,0.0
53242.0,STARLINK-4056,PAYLOAD,2023-11-08 01:28:30,15.08828809,0.0001533,53.2198,66.706,89.9136,270.2032,0.00034831,5.258e-05,0.0,0 STARLINK-4056,1 53242U 22086A   23312.06146825  .00005258  00000-0  34831-3 0  9999,2 53242  53.2198  66.7060 0001533  89.9136 270.2032 15.08828809 72092,6917.915,95.438,540.84,538.719,0.0
53242.0,STARLINK-4056,PAYLOAD,2023-11-08 11:00:49,15.08853857,0.0001374,53.2179,64.9228,89.956,270.159,0.00092236,0.00014427,0.0,0 STARLINK-4056,1 53242U 22086A   23312.45890140  .00014427  00000-0  92236-3 0  9999,2 53242  53.2179  64.9228 0001374  89.9560 270.1590 15.08853857 72157,6917.838,95.437,540.654,538.753,0.0
53242.0,STARLINK-4056,PAYLOAD,2023-11-08 14:11:34,15.08865842,0.0001349,53.2187,64.3288,54.1304,305.9814,0.00081351,0.00012692,0.0,0 STARLINK-4056,1 53242U 22086A   23312.59136777  .00012692  00000-0  81351-3 0  9991,2 53242  53.2187  64.3288 0001349  54.1304 305.9814 15.08865842 72678,6917.801,95.436,540.6,538.733,0.0
53242.0,STARLINK-4056,PAYLOAD,2023-11-09 12:26:58,15.08853148,0.0001543,53.2181,60.167,70.0134,290.1024,0.00034678,5.237e-05,0.0,0 STARLINK-4056,1 53242U 22086A   23313.51873476  .00005237  00000-0  34678-3 0  9995,2 53242  53.2181  60.1670 0001543  70.0134 290.1024 15.08853148 72310,6917.84,95.437,540.773,538.638,0.0
53242.0,STARLINK-4056,PAYLOAD,2023-11-09 14:02:21,15.08854007,0.0001467,53.2184,59.8681,83.6095,276.5064,0.00030207,4.525e-05,0.0,0 STARLINK-4056,1 53242U 22086A   23313.58497306  .00004525  00000-0  30207-3 0  9999,2 53242  53.2184  59.8681 0001467  83.6095 276.5064 15.08854007 72824,6917.838,95.437,540.717,538.688,0.0
53242.0,STARLINK-4056,PAYLOAD,2023-11-10 12:17:45,15.08854101,0.0001574,53.2189,55.7051,97.3845,262.7326,-5.5371e-05,-1.17e-05,0.0,0 STARLINK-4056,1 53242U 22086A   23314.51232642 -.00001170  00000-0 -55371-4 0  9998,2 53242  53.2189  55.7051 0001574  97.3845 262.7326 15.08854101 72462,6917.837,95.437,540.791,538.613,0.0
53242.0,STARLINK-4056,PAYLOAD,2023-11-10 13:53:08,15.08856406,0.0001465,53.2183,55.4095,73.1318,286.9835,-7.8868e-05,-1.544e-05,0.0,0 STARLINK-4056,1 53242U 22086A   23314.57856486 -.00001544  00000-0 -78868-4 0  9993,2 53242  53.2183  55.4095 0001465  73.1318 286.9835 15.08856406 72976,6917.83,95.437,540.709,538.682,0.0
53242.0,STARLINK-4056,PAYLOAD,2023-11-11 12:08:32,15.08842104,0.0001492,53.2191,51.2467,85.0157,275.1005,-5.7181e-06,-3.79e-06,0.0,0 STARLINK-4056,1 53242U 22086A   23315.50592904 -.00000379  00000-0 -57181-5 0  9990,2 53242  53.2191  51.2467 0001492  85.0157 275.1005 15.08842104 72615,6917.874,95.437,540.771,538.707,0.0
53242.0,STARLINK-4056,PAYLOAD,2023-11-11 13:43:55,15.08846299,0.0001403,53.2179,50.9488,85.6022,274.513,3.4043e-05,2.54e-06,0.0,0 STARLINK-4056,1 53242U 22086A   23315.57216634  .00000254  00000-0  34043-4 0  9991,2 53242  53.2179  50.9488 0001403  85.6022 274.5130 15.08846299 73127,6917.861,95.437,540.697,538.756,0.0
